[{"OBJECT_NAME":"STARLINK-3976","OBJECT_ID":"2022-053T","EPOCH":"2026-03-09T12:05:07.021536","MEAN_MOTION":15.0883706,"ECCENTRICITY":0.00013397,"INCLINATION":53.2174,"RA_OF_ASC_NODE":154.9554,"ARG_OF_PERICENTER":82.5118,"MEAN_ANOMALY":277.6027,"EPHEMERIS_TYPE":0,"CLASSIFICATION_TYPE":"U","NORAD_CAT_ID":52673,"ELEMENT_SET_NO":999,"REV_AT_EPOCH":21101,"BSTAR":-8.253538e-6,"MEAN_MOTION_DOT":-4.19e-6,"MEAN_MOTION_DDOT":0},{"OBJECT_NAME":"THOR ABLESTAR DEB","OBJECT_ID":"1961-015HM","EPOCH":"2026-03-09T12:53:31.788672","MEAN_MOTION":15.12609006,"ECCENTRICITY":0.0020802,"INCLINATION":66.4912,"RA_OF_ASC_NODE":108.7707,"ARG_OF_PERICENTER":275.236,"MEAN_ANOMALY":209.827,"EPHEMERIS_TYPE":0,"CLASSIFICATION_TYPE":"U","NORAD_CAT_ID":660,"ELEMENT_SET_NO":999,"REV_AT_EPOCH":37032,"BSTAR":0.0020976473,"MEAN_MOTION_DOT":0.00036985,"MEAN_MOTION_DDOT":0}]
